STARLINK-35725          
1 67565U 26016E   26046.25002315 -.00043943  00000+0 -29477-3 0  9996
2 67565  97.2840 105.5798 0001255  89.9451  48.7790 15.75228066  4433
STARLINK-36394          
1 67566U 26016F   26046.22732184  .00166255  00000+0  10898-2 0  9994
2 67566  97.2847 105.5462 0001149  82.9001 277.2395 15.75277507  3269
STARLINK-36352          
1 67567U 26016G   26046.21406536  .00298549  00000+0  14984-2 0  9995
2 67567  97.2852 105.5641 0001139 123.1487 236.9891 15.80936669  3260
STARLINK-36435          
1 67568U 26016H   26046.21181177  .00311203  00000+0  15586-2 0  9999
2 67568  97.2850 105.5668 0000690 232.0340 128.0867 15.80950063  3265
STARLINK-36575          
1 67569U 26016J   26046.21060519  .00241026  00000+0  12189-2 0  9997
2 67569  97.2842 105.5724 0001041 105.0377 255.1006 15.80917799  3266
STARLINK-36562          
1 67570U 26016K   26046.20969454  .00298105  00000+0  14963-2 0  9996
2 67570  97.2844 105.5731 0001205  75.5339 284.6063 15.80935787  3266
STARLINK-36578          
1 67571U 26016L   26046.22944718  .00094268  00000+0  62511-3 0  9992
2 67571  97.2843 105.5452 0001356  83.1639 276.9780 15.75220220  3264
STARLINK-36350          
1 67572U 26016M   26046.22168326  .00153692  00000+0  10106-2 0  9995
2 67572  97.2850 105.5542 0001005  84.6377 275.5003 15.75242336  3264
STARLINK-36588          
1 67573U 26016N   26046.22380113  .00238298  00000+0  15489-2 0  9991
2 67573  97.2844 105.5524 0001294  63.1416 296.9981 15.75271638  3263
STARLINK-36594          
1 67574U 26016P   26046.20498245  .00303031  00000+0  15199-2 0  9992
2 67574  97.2843 105.5779 0001332  91.9633 268.1788 15.80938914  3267
STARLINK-36400          
1 67575U 26016Q   26046.25002315  .00003517  00000+0  24507-4 0  9998
2 67575  97.2850 105.6227 0001611  50.4708 198.2629 15.75123735  4380
STARLINK-36591          
1 67576U 26016R   26046.26625198  .00272656  00000+0  13732-2 0  9998
2 67576  97.2843 105.6474 0001251 103.1923 256.9484 15.80926158  3276
