CCSDS_OMM_VERS = 2.0
CREATION_DATE  = 
ORIGINATOR     = 

OBJECT_NAME    = STARLINK-35725
OBJECT_ID      = 2026-016E
CENTER_NAME    = EARTH
REF_FRAME      = TEME
TIME_SYSTEM    = UTC
MEAN_ELEMENT_THEORY = SGP/SGP4

EPOCH          = 2026-02-15T06:00:02.000160
MEAN_MOTION    = 15.75228066
ECCENTRICITY   = .00012551
INCLINATION    = 97.2840
RA_OF_ASC_NODE = 105.5798
ARG_OF_PERICENTER = 89.9451
MEAN_ANOMALY   = 48.7790

EPHEMERIS_TYPE = 0
CLASSIFICATION_TYPE = U
NORAD_CAT_ID   = 67565
ELEMENT_SET_NO = 999
REV_AT_EPOCH   = 443
BSTAR          = -.29477075E-3
MEAN_MOTION_DOT = -.43943E-3
MEAN_MOTION_DDOT = 0

CCSDS_OMM_VERS = 2.0
CREATION_DATE  = 
ORIGINATOR     = 

OBJECT_NAME    = STARLINK-36394
OBJECT_ID      = 2026-016F
CENTER_NAME    = EARTH
REF_FRAME      = TEME
TIME_SYSTEM    = UTC
MEAN_ELEMENT_THEORY = SGP/SGP4

EPOCH          = 2026-02-15T05:27:20.606976
MEAN_MOTION    = 15.75277507
ECCENTRICITY   = .0001149
INCLINATION    = 97.2847
RA_OF_ASC_NODE = 105.5462
ARG_OF_PERICENTER = 82.9001
MEAN_ANOMALY   = 277.2395

EPHEMERIS_TYPE = 0
CLASSIFICATION_TYPE = U
NORAD_CAT_ID   = 67566
ELEMENT_SET_NO = 999
REV_AT_EPOCH   = 326
BSTAR          = .10898292E-2
MEAN_MOTION_DOT = .166255E-2
MEAN_MOTION_DDOT = 0

CCSDS_OMM_VERS = 2.0
CREATION_DATE  = 
ORIGINATOR     = 

OBJECT_NAME    = STARLINK-36352
OBJECT_ID      = 2026-016G
CENTER_NAME    = EARTH
REF_FRAME      = TEME
TIME_SYSTEM    = UTC
MEAN_ELEMENT_THEORY = SGP/SGP4

EPOCH          = 2026-02-15T05:08:15.247104
MEAN_MOTION    = 15.80936669
ECCENTRICITY   = .0001139
INCLINATION    = 97.2852
RA_OF_ASC_NODE = 105.5641
ARG_OF_PERICENTER = 123.1487
MEAN_ANOMALY   = 236.9891

EPHEMERIS_TYPE = 0
CLASSIFICATION_TYPE = U
NORAD_CAT_ID   = 67567
ELEMENT_SET_NO = 999
REV_AT_EPOCH   = 326
BSTAR          = .14983584E-2
MEAN_MOTION_DOT = .298549E-2
MEAN_MOTION_DDOT = 0

CCSDS_OMM_VERS = 2.0
CREATION_DATE  = 
ORIGINATOR     = 

OBJECT_NAME    = STARLINK-36435
OBJECT_ID      = 2026-016H
CENTER_NAME    = EARTH
REF_FRAME      = TEME
TIME_SYSTEM    = UTC
MEAN_ELEMENT_THEORY = SGP/SGP4

EPOCH          = 2026-02-15T05:05:00.536928
MEAN_MOTION    = 15.80950063
ECCENTRICITY   = .00006901
INCLINATION    = 97.2850
RA_OF_ASC_NODE = 105.5668
ARG_OF_PERICENTER = 232.0340
MEAN_ANOMALY   = 128.0867

EPHEMERIS_TYPE = 0
CLASSIFICATION_TYPE = U
NORAD_CAT_ID   = 67568
ELEMENT_SET_NO = 999
REV_AT_EPOCH   = 326
BSTAR          = .15585595E-2
MEAN_MOTION_DOT = .311203E-2
MEAN_MOTION_DDOT = 0

CCSDS_OMM_VERS = 2.0
CREATION_DATE  = 
ORIGINATOR     = 

OBJECT_NAME    = STARLINK-36575
OBJECT_ID      = 2026-016J
CENTER_NAME    = EARTH
REF_FRAME      = TEME
TIME_SYSTEM    = UTC
MEAN_ELEMENT_THEORY = SGP/SGP4

EPOCH          = 2026-02-15T05:03:16.288416
MEAN_MOTION    = 15.80917799
ECCENTRICITY   = .00010416
INCLINATION    = 97.2842
RA_OF_ASC_NODE = 105.5724
ARG_OF_PERICENTER = 105.0377
MEAN_ANOMALY   = 255.1006

EPHEMERIS_TYPE = 0
CLASSIFICATION_TYPE = U
NORAD_CAT_ID   = 67569
ELEMENT_SET_NO = 999
REV_AT_EPOCH   = 326
BSTAR          = .12189381E-2
MEAN_MOTION_DOT = .241026E-2
MEAN_MOTION_DDOT = 0

CCSDS_OMM_VERS = 2.0
CREATION_DATE  = 
ORIGINATOR     = 

OBJECT_NAME    = STARLINK-36562
OBJECT_ID      = 2026-016K
CENTER_NAME    = EARTH
REF_FRAME      = TEME
TIME_SYSTEM    = UTC
MEAN_ELEMENT_THEORY = SGP/SGP4

EPOCH          = 2026-02-15T05:01:57.608256
MEAN_MOTION    = 15.80935787
ECCENTRICITY   = .00012056
INCLINATION    = 97.2844
RA_OF_ASC_NODE = 105.5731
ARG_OF_PERICENTER = 75.5339
MEAN_ANOMALY   = 284.6063

EPHEMERIS_TYPE = 0
CLASSIFICATION_TYPE = U
NORAD_CAT_ID   = 67570
ELEMENT_SET_NO = 999
REV_AT_EPOCH   = 326
BSTAR          = .14962719E-2
MEAN_MOTION_DOT = .298105E-2
MEAN_MOTION_DDOT = 0

CCSDS_OMM_VERS = 2.0
CREATION_DATE  = 
ORIGINATOR     = 

OBJECT_NAME    = STARLINK-36578
OBJECT_ID      = 2026-016L
CENTER_NAME    = EARTH
REF_FRAME      = TEME
TIME_SYSTEM    = UTC
MEAN_ELEMENT_THEORY = SGP/SGP4

EPOCH          = 2026-02-15T05:30:24.236352
MEAN_MOTION    = 15.75220220
ECCENTRICITY   = .00013566
INCLINATION    = 97.2843
RA_OF_ASC_NODE = 105.5452
ARG_OF_PERICENTER = 83.1639
MEAN_ANOMALY   = 276.9780

EPHEMERIS_TYPE = 0
CLASSIFICATION_TYPE = U
NORAD_CAT_ID   = 67571
ELEMENT_SET_NO = 999
REV_AT_EPOCH   = 326
BSTAR          = .62511174E-3
MEAN_MOTION_DOT = .94268E-3
MEAN_MOTION_DDOT = 0

CCSDS_OMM_VERS = 2.0
CREATION_DATE  = 
ORIGINATOR     = 

OBJECT_NAME    = STARLINK-36350
OBJECT_ID      = 2026-016M
CENTER_NAME    = EARTH
REF_FRAME      = TEME
TIME_SYSTEM    = UTC
MEAN_ELEMENT_THEORY = SGP/SGP4

EPOCH          = 2026-02-15T05:19:13.433664
MEAN_MOTION    = 15.75242336
ECCENTRICITY   = .00010055
INCLINATION    = 97.2850
RA_OF_ASC_NODE = 105.5542
ARG_OF_PERICENTER = 84.6377
MEAN_ANOMALY   = 275.5003

EPHEMERIS_TYPE = 0
CLASSIFICATION_TYPE = U
NORAD_CAT_ID   = 67572
ELEMENT_SET_NO = 999
REV_AT_EPOCH   = 326
BSTAR          = .10105702E-2
MEAN_MOTION_DOT = .153692E-2
MEAN_MOTION_DDOT = 0

CCSDS_OMM_VERS = 2.0
CREATION_DATE  = 
ORIGINATOR     = 

OBJECT_NAME    = STARLINK-36588
OBJECT_ID      = 2026-016N
CENTER_NAME    = EARTH
REF_FRAME      = TEME
TIME_SYSTEM    = UTC
MEAN_ELEMENT_THEORY = SGP/SGP4

EPOCH          = 2026-02-15T05:22:16.417632
MEAN_MOTION    = 15.75271638
ECCENTRICITY   = .00012945
INCLINATION    = 97.2844
RA_OF_ASC_NODE = 105.5524
ARG_OF_PERICENTER = 63.1416
MEAN_ANOMALY   = 296.9981

EPHEMERIS_TYPE = 0
CLASSIFICATION_TYPE = U
NORAD_CAT_ID   = 67573
ELEMENT_SET_NO = 999
REV_AT_EPOCH   = 326
BSTAR          = .15488768E-2
MEAN_MOTION_DOT = .238298E-2
MEAN_MOTION_DDOT = 0

CCSDS_OMM_VERS = 2.0
CREATION_DATE  = 
ORIGINATOR     = 

OBJECT_NAME    = STARLINK-36594
OBJECT_ID      = 2026-016P
CENTER_NAME    = EARTH
REF_FRAME      = TEME
TIME_SYSTEM    = UTC
MEAN_ELEMENT_THEORY = SGP/SGP4

EPOCH          = 2026-02-15T04:55:10.483680
MEAN_MOTION    = 15.80938914
ECCENTRICITY   = .00013328
INCLINATION    = 97.2843
RA_OF_ASC_NODE = 105.5779
ARG_OF_PERICENTER = 91.9633
MEAN_ANOMALY   = 268.1788

EPHEMERIS_TYPE = 0
CLASSIFICATION_TYPE = U
NORAD_CAT_ID   = 67574
ELEMENT_SET_NO = 999
REV_AT_EPOCH   = 326
BSTAR          = .15199071E-2
MEAN_MOTION_DOT = .303031E-2
MEAN_MOTION_DDOT = 0

CCSDS_OMM_VERS = 2.0
CREATION_DATE  = 
ORIGINATOR     = 

OBJECT_NAME    = STARLINK-36400
OBJECT_ID      = 2026-016Q
CENTER_NAME    = EARTH
REF_FRAME      = TEME
TIME_SYSTEM    = UTC
MEAN_ELEMENT_THEORY = SGP/SGP4

EPOCH          = 2026-02-15T06:00:02.000160
MEAN_MOTION    = 15.75123735
ECCENTRICITY   = .00016116
INCLINATION    = 97.2850
RA_OF_ASC_NODE = 105.6227
ARG_OF_PERICENTER = 50.4708
MEAN_ANOMALY   = 198.2629

EPHEMERIS_TYPE = 0
CLASSIFICATION_TYPE = U
NORAD_CAT_ID   = 67575
ELEMENT_SET_NO = 999
REV_AT_EPOCH   = 438
BSTAR          = .2450698E-4
MEAN_MOTION_DOT = .3517E-4
MEAN_MOTION_DDOT = 0

CCSDS_OMM_VERS = 2.0
CREATION_DATE  = 
ORIGINATOR     = 

OBJECT_NAME    = STARLINK-36591
OBJECT_ID      = 2026-016R
CENTER_NAME    = EARTH
REF_FRAME      = TEME
TIME_SYSTEM    = UTC
MEAN_ELEMENT_THEORY = SGP/SGP4

EPOCH          = 2026-02-15T06:23:24.171072
MEAN_MOTION    = 15.80926158
ECCENTRICITY   = .00012512
INCLINATION    = 97.2843
RA_OF_ASC_NODE = 105.6474
ARG_OF_PERICENTER = 103.1923
MEAN_ANOMALY   = 256.9484

EPHEMERIS_TYPE = 0
CLASSIFICATION_TYPE = U
NORAD_CAT_ID   = 67576
ELEMENT_SET_NO = 999
REV_AT_EPOCH   = 327
BSTAR          = .1373246E-2
MEAN_MOTION_DOT = .272656E-2
MEAN_MOTION_DDOT = 0

